ONEWEB-0709             
1 55172U 23004AJ  24279.14047284 -.00000189  00000+0 -56812-3 0  9997
2 55172  87.8938 144.6109 0002611  69.4091 290.7317 13.11419628 84613
ONEWEB-0710             
1 55173U 23004AK  24279.10901239  .00000274  00000+0  67306-3 0  9996
2 55173  87.9099 129.4144 0001446  72.9692 287.1598 13.17652265 85922
ONEWEB-0711             
1 55174U 23004AL  24278.65387110 -.00000393  00000+0 -11433-2 0  9995
2 55174  87.8937 144.6762 0001139  43.4895 316.6323 13.11416864 84509
ONEWEB-0713             
1 55175U 23004AM  24279.13030784 -.00000342  00000+0 -10015-2 0  9991
2 55175  87.8937 144.5896 0001360  68.5330 291.5943 13.11419446 84558
ONEWEB-0715             
1 55176U 23004AN  24279.12521134 -.00000706  00000+0 -20288-2 0  9992
2 55176  87.8937 144.5907 0001842  66.6434 293.4887 13.11418486 84608
ONEWEB-0716             
1 55177U 23004AP  24279.10227326  .00000160  00000+0  37950-3 0  9994
2 55177  87.9103 129.4099 0001555  87.4267 272.7043 13.17647250 85924
ONEWEB-0717             
1 55178U 23004AQ  24278.55384356  .00000165  00000+0  39235-3 0  9993
2 55178  87.9102 129.4819 0001490  47.4785 312.6472 13.17648802 85905
ONEWEB-0719             
1 55179U 23004AR  24279.09550778  .00000070  00000+0  14653-3 0  9999
2 55179  87.9100 129.3595 0001438  88.1254 272.0042 13.17650056 85927
ONEWEB-0530             
1 55796U 23029A   24278.86961378  .00000103  00000+0  22147-3 0  9991
2 55796  87.9276  37.8644 0001096  96.7960 263.3298 13.20770736 79261
ONEWEB-0534             
1 55797U 23029B   24278.85699477  .00000022  00000+0  22700-4 0  9995
2 55797  87.9277  37.8740 0001765 104.3169 255.8160 13.20771567 79267
ONEWEB-0556             
1 55798U 23029C   24278.86330892  .00000051  00000+0  92342-4 0  9991
2 55798  87.9275  37.8657 0001273 131.9611 228.1631 13.20773070 79262
ONEWEB-0562             
1 55799U 23029D   24278.85067328  .00000040  00000+0  67686-4 0  9993
2 55799  87.9278  37.8596 0000714 121.4382 238.6821 13.20771014 79269
ONEWEB-0563             
1 55800U 23029E   24278.84436910  .00000105  00000+0  22640-3 0  9994
2 55800  87.9277  37.8757 0001971 109.7434 250.3912 13.20771407 79250
ONEWEB-0564             
1 55801U 23029F   24278.83805634  .00000088  00000+0  18530-3 0  9990
2 55801  87.9278  37.8634 0001292  95.2908 264.8373 13.20771925 79264
ONEWEB-0638             
1 55802U 23029G   24278.88090306 -.00000108  00000+0 -32445-3 0  9994
2 55802  87.8986  53.1084 0001431 120.4455 239.6816 13.14503847 78612
ONEWEB-0639             
1 55803U 23029H   24278.92637595  .00000085  00000+0  17876-3 0  9990
2 55803  87.9129  68.3348 0002937 106.9481 253.1974 13.19725097 77785
ONEWEB-0640             
1 55804U 23029J   24278.89041093  .00000033  00000+0  54147-4 0  9995
2 55804  87.8987  53.1003 0001823 126.1844 233.9455 13.14505004 77922
ONEWEB-0641             
1 55805U 23029K   24278.84581517  .00000106  00000+0  23247-3 0  9998
2 55805  87.9126  68.3300 0001925  96.7369 263.3982 13.19724691 77094
ONEWEB-0642             
1 55806U 23029L   24278.84108034  .00000102  00000+0  22139-3 0  9993
2 55806  87.9130  68.3579 0002710 100.8950 259.2488 13.19724649 77081
ONEWEB-0643             
1 55807U 23029M   24278.93640452 -.00000162  00000+0 -47127-3 0  9991
2 55807  87.8988  53.0696 0002596  91.0118 269.1309 13.14503375 78610
ONEWEB-0644             
1 55808U 23029N   24278.98798127  .00000165  00000+0  38013-3 0  9995
2 55808  87.9132  68.3272 0002295  98.1199 262.0194 13.19726682 77790
ONEWEB-0645             
1 55809U 23029P   24278.98401836  .00000100  00000+0  21646-3 0  9997
2 55809  87.9130  68.3278 0002077 107.7796 252.3563 13.19723802 77796
ONEWEB-0646             
1 55810U 23029Q   24278.86238551  .00000073  00000+0  15099-3 0  9992
2 55810  87.9128  68.3495 0001970  93.9147 266.2211 13.19722937 77076
ONEWEB-0648             
1 55811U 23029R   24278.90469481  .00000248  00000+0  63353-3 0  9996
2 55811  87.8989  53.0485 0002623 112.1777 247.9632 13.14503607 78610
ONEWEB-0649             
1 55812U 23029S   24278.97692050  .00000053  00000+0  10087-3 0  9994
2 55812  87.9126  68.3205 0002194 105.1310 255.0066 13.19725230 77817
ONEWEB-0650             
1 55813U 23029T   24278.89636285  .00000021  00000+0  20307-4 0  9996
2 55813  87.9130  68.3406 0001994  94.7764 265.3596 13.19726277 77082
ONEWEB-0652             
1 55814U 23029U   24278.88566262  .00000018  00000+0  13530-4 0  9999
2 55814  87.8986  53.0634 0001534  97.1564 262.9740 13.14502547 77878
ONEWEB-0653             
1 55815U 23029V   24278.86980062 -.00000201  00000+0 -57740-3 0  9992
2 55815  87.8989  53.0493 0001440 107.2633 252.8654 13.14504729 77901
ONEWEB-0654             
1 55816U 23029W   24278.94116154 -.00000148  00000+0 -43429-3 0  9994
2 55816  87.8988  53.0422 0001185  96.1613 263.9652 13.14504454 78629
ONEWEB-0656             
1 55817U 23029X   24278.83175131  .00000153  00000+0  34462-3 0  9994
2 55817  87.9275  37.8062 0001326  80.2645 279.8638 13.20772842 79262
ONEWEB-0657             
1 55818U 23029Y   24278.96744909  .00000066  00000+0  13163-3 0  9992
2 55818  87.9129  68.3315 0001823  65.5222 294.6100 13.19726331 77784
ONEWEB-0658             
1 55819U 23029Z   24278.88688827  .00000068  00000+0  13840-3 0  9994
2 55819  87.9128  68.2826 0002270  97.6662 262.4728 13.19726748 77108
ONEWEB-0660             
1 55820U 23029AA  24278.84284097  .00000127  00000+0  30672-3 0  9991
2 55820  87.8988  53.0357 0001826 111.5247 248.6077 13.14504341 77904
ONEWEB-0661             
1 55821U 23029AB  24278.87772940 -.00000099  00000+0 -30037-3 0  9999
2 55821  87.8986  53.0965 0001749 113.8822 246.2491 13.14503920 77890
ONEWEB-0662             
1 55822U 23029AC  24278.91262780  .00000287  00000+0  74091-3 0  9996
2 55822  87.8989  53.0972 0001879 106.1083 254.0253 13.14503671 78651
ONEWEB-0663             
1 55823U 23029AD  24278.89857519  .00000166  00000+0  37737-3 0  9996
2 55823  87.9274  37.8528 0002035 110.3660 249.7693 13.20802309 79949
ONEWEB-0664             
1 55824U 23029AE  24278.89486858  .00000069  00000+0  13720-3 0  9999
2 55824  87.9277  37.8687 0001498 115.1600 244.9688 13.20770137 79953
ONEWEB-0665             
1 55825U 23029AF  24278.87454992 -.00000158  00000+0 -46161-3 0  9998
2 55825  87.8987  53.0720 0001816 108.4620 251.6708 13.14505607 77913
ONEWEB-0666             
1 55826U 23029AG  24278.88854157  .00000090  00000+0  18974-3 0  9991
2 55826  87.9276  37.8598 0001426  89.3175 270.8122 13.20770123 79951
ONEWEB-0667             
1 55827U 23029AH  24278.88224701  .00000113  00000+0  24592-3 0  9997
2 55827  87.9275  37.7941 0001752 109.4197 250.7126 13.20771503 79945
ONEWEB-0669             
1 55828U 23029AJ  24278.87751798  .00000054  00000+0  10194-3 0  9995
2 55828  87.9275  37.8321 0000960  97.6528 262.4715 13.20771622 79941
ONEWEB-0670             
1 55829U 23029AK  24278.85234129  .00000021  00000+0  21343-4 0  9991
2 55829  87.8993  53.0860 0001577 115.7265 244.4028 13.14500428 77932
ONEWEB-0671             
1 55830U 23029AL  24278.88214571  .00000016  00000+0  81546-5 0  9991
2 55830  87.9128  68.3454 0001633 104.0237 256.1077 13.19726903 77089
ONEWEB-0672             
1 55831U 23029AM  24278.87276099  .00000094  00000+0  20034-3 0  9993
2 55831  87.9275  37.8174 0001553  89.2109 270.9202 13.20770149 79265
ONEWEB-0673             
1 55832U 23029AN  24278.85845465  .00000122  00000+0  27268-3 0  9999
2 55832  87.9124  68.3156 0001881  96.5690 263.5657 13.19726259 77089
ONEWEB-0674             
1 55833U 23029AP  24278.89672823 -.00000118  00000+0 -35180-3 0  9999
2 55833  87.8989  53.0771 0001402 119.7630 240.3640 13.14501165 78609
ONEWEB-0675             
1 55834U 23029AQ  24278.87424239  .00000021  00000+0  19220-4 0  9993
2 55834  87.9131  68.3505 0001880  83.5813 276.5534 13.19728551 77107
ONEWEB-0720             
1 55835U 23029AR  24278.94217332  .00000166  00000+0  38310-3 0  9996
2 55835  87.9131  68.3363 0002079 103.1227 257.0138 13.19725602 77725
ONEWEB-0537             
1 56046U 23043A   24278.75542177  .00000049  00000+0  94084-4 0  9995
2 56046  87.9163 352.3390 0001821  91.0513 269.0827 13.16594914 77329
ONEWEB-0538             
1 56047U 23043B   24278.74908720  .00000136  00000+0  32177-3 0  9996
2 56047  87.9164 352.3607 0002120  96.4426 263.6946 13.16595803 77338
ONEWEB-0546             
1 56048U 23043C   24278.73642840  .00000183  00000+0  44555-3 0  9999
2 56048  87.9163 352.3289 0001463  72.9332 287.1959 13.16595431 77329
ONEWEB-0547             
1 56049U 23043D   24278.76598861 -.00000004  00000+0 -41228-4 0  9995
2 56049  87.9373   7.5330 0002033  97.9695 262.1670 13.21825130 76265
ONEWEB-0548             
1 56050U 23043E   24278.76175192  .00000058  00000+0  11930-3 0  9998
2 56050  87.9163 352.3662 0001571 118.1994 241.9295 13.16595665 77324
ONEWEB-0549             
1 56051U 23043F   24278.75731415  .00000062  00000+0  11902-3 0  9998
2 56051  87.9374   7.5354 0002287  94.6579 265.4816 13.21824999 76261
ONEWEB-0550             
1 56052U 23043G   24278.51760691  .00000217  00000+0  49464-3 0  9997
2 56052  87.9369   7.5867 0001835 106.8051 253.3284 13.21825637 76236
ONEWEB-0551             
1 56053U 23043H   24278.83166126  .00000259  00000+0  65396-3 0  9994
2 56053  87.9125  22.6950 0001966 102.9362 257.1988 13.15551507 74837
ONEWEB-0552             
1 56054U 23043J   24278.81409071  .00000189  00000+0  42588-3 0  9992
2 56054  87.9369   7.5375 0002007 108.7490 251.3862 13.21825251 76278
ONEWEB-0553             
1 56055U 23043K   24278.66674771  .00000096  00000+0  21879-3 0  9994
2 56055  87.9164 352.3736 0001689  90.0476 270.0848 13.16597366 77322
ONEWEB-0554             
1 56056U 23043L   24279.18607981  .00000122  00000+0  28558-3 0  9993
2 56056  87.9165 352.2945 0001682 121.0278 239.1019 13.16595232 78285
